{
    "CCSDS_OMM_VERS": "3.0",
    "COMMENT": "GENERATED VIA SPACE-TRACK.ORG API",
    "CREATION_DATE": "2025-05-22T17:14:14",
    "ORIGINATOR": "18 SPCS",
    "OBJECT_NAME": "NAVSTAR 76 (USA 266)",
    "OBJECT_ID": "2016-007A",
    "CENTER_NAME": "EARTH",
    "REF_FRAME": "TEME",
    "TIME_SYSTEM": "UTC",
    "MEAN_ELEMENT_THEORY": "SGP4",
    "EPOCH": "2025-05-21T23:29:27.874176",
    "MEAN_MOTION": "2.00570954",
    "ECCENTRICITY": "0.00879080",
    "INCLINATION": "55.2892",
    "RA_OF_ASC_NODE": "104.9873",
    "ARG_OF_PERICENTER": "242.8073",
    "MEAN_ANOMALY": "116.2758",
    "EPHEMERIS_TYPE": "0",
    "CLASSIFICATION_TYPE": "U",
    "NORAD_CAT_ID": "41328",
    "ELEMENT_SET_NO": "999",
    "REV_AT_EPOCH": "6799",
    "BSTAR": "0.00000000000000",
    "MEAN_MOTION_DOT": "0.00000055",
    "MEAN_MOTION_DDOT": "0.0000000000000",
    "SEMIMAJOR_AXIS": "26559.699",
    "PERIOD": "717.950",
    "APOAPSIS": "20415.045",
    "PERIAPSIS": "19948.083",
    "OBJECT_TYPE": "PAYLOAD",
    "RCS_SIZE": "LARGE",
    "COUNTRY_CODE": "US",
    "LAUNCH_DATE": "2016-02-05",
    "SITE": "AFETR",
    "DECAY_DATE": null,
    "FILE": "4736220",
    "GP_ID": "288143389",
    "TLE_LINE0": "0 NAVSTAR 76 (USA 266)",
    "TLE_LINE1": "1 41328U 16007A   25141.97879484  .00000055  00000-0  00000-0 0  9991",
    "TLE_LINE2": "2 41328  55.2892 104.9873 0087908 242.8073 116.2758  2.00570954 67994"
}